{
  "type": "FeatureCollection",
  "features": [
    {
      "type": "Feature",
      "properties": {
        "norad_id": 35073,
        "name": "COSMOS 2251 DEB",
        "group": "cosmos-2251-debris",
        "lat": 29.996217863900075,
        "lon": 124.63577028354881,
        "alt_km": 562.2042212919923,
        "timestamp": "2025-12-20T18:51:32.109154+00:00",
        "meta_object_name": "COSMOS 2251 DEB",
        "meta_object_id": "1993-036AJC",
        "meta_epoch": "2025-12-15T05:25:47.046144",
        "meta_mean_motion": 15.00831653,
        "meta_eccentricity": 0.00109074,
        "meta_inclination": 73.9997,
        "meta_ra_of_asc_node": 325.5063,
        "meta_arg_of_pericenter": 67.0121,
        "meta_mean_anomaly": 293.2216,
        "meta_ephemeris_type": 0,
        "meta_classification_type": "U",
        "meta_norad_cat_id": 35073,
        "meta_element_set_no": 999,
        "meta_rev_at_epoch": 67516,
        "meta_bstar": 0.001951072,
        "meta_mean_motion_dot": 0.00024882,
        "meta_mean_motion_ddot": 0,
        "tle_line1": "1 35073U 93036AJC 25349.22623896  .00024882  00000+0  19511-2 0  9992",
        "tle_line2": "2 35073  73.9997 325.5063 0010907  67.0121 293.2216 15.00831653675164"
      },
      "geometry": {
        "type": "Point",
        "coordinates": [
          124.63577028354881,
          29.996217863900075
        ]
      }
    },
    {
      "type": "Feature",
      "properties": {
        "norad_id": 35284,
        "name": "COSMOS 2251 DEB",
        "group": "cosmos-2251-debris",
        "lat": -42.474465061283695,
        "lon": 84.78884569463776,
        "alt_km": 772.4601511674127,
        "timestamp": "2025-12-20T18:51:32.109164+00:00",
        "meta_object_name": "COSMOS 2251 DEB",
        "meta_object_id": "1993-036AJN",
        "meta_epoch": "2025-12-20T11:57:49.053888",
        "meta_mean_motion": 14.38325797,
        "meta_eccentricity": 0.00170776,
        "meta_inclination": 74.0488,
        "meta_ra_of_asc_node": 250.1381,
        "meta_arg_of_pericenter": 325.4276,
        "meta_mean_anomaly": 212.2402,
        "meta_ephemeris_type": 0,
        "meta_classification_type": "U",
        "meta_norad_cat_id": 35284,
        "meta_element_set_no": 999,
        "meta_rev_at_epoch": 65637,
        "meta_bstar": 0.00012056337,
        "meta_mean_motion_dot": 3.41e-06,
        "meta_mean_motion_ddot": 0,
        "tle_line1": "1 35284U 93036AJN 25354.49848442  .00000341  00000+0  12056-3 0  9999",
        "tle_line2": "2 35284  74.0488 250.1381 0017077 325.4276 212.2402 14.38325797656375"
      },
      "geometry": {
        "type": "Point",
        "coordinates": [
          84.78884569463776,
          -42.474465061283695
        ]
      }
    },
    {
      "type": "Feature",
      "properties": {
        "norad_id": 35287,
        "name": "COSMOS 2251 DEB",
        "group": "cosmos-2251-debris",
        "lat": -15.350466038844274,
        "lon": -103.15714667172395,
        "alt_km": 762.3351711710529,
        "timestamp": "2025-12-20T18:51:32.109174+00:00",
        "meta_object_name": "COSMOS 2251 DEB",
        "meta_object_id": "1993-036AJR",
        "meta_epoch": "2025-12-20T04:35:49.901856",
        "meta_mean_motion": 14.36382318,
        "meta_eccentricity": 0.00179029,
        "meta_inclination": 74.0304,
        "meta_ra_of_asc_node": 262.443,
        "meta_arg_of_pericenter": 357.4612,
        "meta_mean_anomaly": 155.1541,
        "meta_ephemeris_type": 0,
        "meta_classification_type": "U",
        "meta_norad_cat_id": 35287,
        "meta_element_set_no": 999,
        "meta_rev_at_epoch": 86999,
        "meta_bstar": 9.9147668e-05,
        "meta_mean_motion_dot": 2.64e-06,
        "meta_mean_motion_ddot": 0,
        "tle_line1": "1 35287U 93036AJR 25354.19154979  .00000264  00000+0  99148-4 0  9996",
        "tle_line2": "2 35287  74.0304 262.4430 0017902 357.4612 155.1541 14.36382318869995"
      },
      "geometry": {
        "type": "Point",
        "coordinates": [
          -103.15714667172395,
          -15.350466038844274
        ]
      }
    },
    {
      "type": "Feature",
      "properties": {
        "norad_id": 35288,
        "name": "COSMOS 2251 DEB",
        "group": "cosmos-2251-debris",
        "lat": -69.8333766592285,
        "lon": -128.7840721788737,
        "alt_km": 657.3862576111496,
        "timestamp": "2025-12-20T18:51:32.109184+00:00",
        "meta_object_name": "COSMOS 2251 DEB",
        "meta_object_id": "1993-036AJS",
        "meta_epoch": "2025-12-18T09:59:01.456512",
        "meta_mean_motion": 14.6551495,
        "meta_eccentricity": 0.00391709,
        "meta_inclination": 73.9507,
        "meta_ra_of_asc_node": 4.189,
        "meta_arg_of_pericenter": 236.8984,
        "meta_mean_anomaly": 122.8422,
        "meta_ephemeris_type": 0,
        "meta_classification_type": "U",
        "meta_norad_cat_id": 35288,
        "meta_element_set_no": 999,
        "meta_rev_at_epoch": 87961,
        "meta_bstar": 0.00084957845,
        "meta_mean_motion_dot": 4.628e-05,
        "meta_mean_motion_ddot": 0,
        "tle_line1": "1 35288U 93036AJS 25352.41598908  .00004628  00000+0  84958-3 0  9994",
        "tle_line2": "2 35288  73.9507   4.1890 0039170 236.8984 122.8422 14.65514950879613"
      },
      "geometry": {
        "type": "Point",
        "coordinates": [
          -128.7840721788737,
          -69.8333766592285
        ]
      }
    },
    {
      "type": "Feature",
      "properties": {
        "norad_id": 35290,
        "name": "COSMOS 2251 DEB",
        "group": "cosmos-2251-debris",
        "lat": -64.9764306769983,
        "lon": -98.54225490192889,
        "alt_km": 633.8420839600967,
        "timestamp": "2025-12-20T18:51:32.109193+00:00",
        "meta_object_name": "COSMOS 2251 DEB",
        "meta_object_id": "1993-036AJU",
        "meta_epoch": "2025-12-20T03:08:10.287168",
        "meta_mean_motion": 14.80565596,
        "meta_eccentricity": 0.00016036,
        "meta_inclination": 74.0049,
        "meta_ra_of_asc_node": 44.8368,
        "meta_arg_of_pericenter": 190.188,
        "meta_mean_anomaly": 169.9265,
        "meta_ephemeris_type": 0,
        "meta_classification_type": "U",
        "meta_norad_cat_id": 35290,
        "meta_element_set_no": 999,
        "meta_rev_at_epoch": 88067,
        "meta_bstar": 0.0010027753,
        "meta_mean_motion_dot": 7.664e-05,
        "meta_mean_motion_ddot": 0,
        "tle_line1": "1 35290U 93036AJU 25354.13067462  .00007664  00000+0  10028-2 0  9993",
        "tle_line2": "2 35290  74.0049  44.8368 0001603 190.1880 169.9265 14.80565596880671"
      },
      "geometry": {
        "type": "Point",
        "coordinates": [
          -98.54225490192889,
          -64.9764306769983
        ]
      }
    },
    {
      "type": "Feature",
      "properties": {
        "norad_id": 35432,
        "name": "COSMOS 2251 DEB",
        "group": "cosmos-2251-debris",
        "lat": -65.15485985902379,
        "lon": -39.65503861186932,
        "alt_km": 493.588904675732,
        "timestamp": "2025-12-20T18:51:32.109203+00:00",
        "meta_object_name": "COSMOS 2251 DEB",
        "meta_object_id": "1993-036AKA",
        "meta_epoch": "2025-12-20T01:50:18.903552",
        "meta_mean_motion": 15.24046357,
        "meta_eccentricity": 0.00124844,
        "meta_inclination": 74.0227,
        "meta_ra_of_asc_node": 0.0698,
        "meta_arg_of_pericenter": 329.3512,
        "meta_mean_anomaly": 30.6957,
        "meta_ephemeris_type": 0,
        "meta_classification_type": "U",
        "meta_norad_cat_id": 35432,
        "meta_element_set_no": 999,
        "meta_rev_at_epoch": 87615,
        "meta_bstar": 0.0018882946,
        "meta_mean_motion_dot": 0.00046162,
        "meta_mean_motion_ddot": 0,
        "tle_line1": "1 35432U 93036AKA 25354.07660768  .00046162  00000+0  18883-2 0  9995",
        "tle_line2": "2 35432  74.0227   0.0698 0012484 329.3512  30.6957 15.24046357876152"
      },
      "geometry": {
        "type": "Point",
        "coordinates": [
          -39.65503861186932,
          -65.15485985902379
        ]
      }
    },
    {
      "type": "Feature",
      "properties": {
        "norad_id": 35433,
        "name": "COSMOS 2251 DEB",
        "group": "cosmos-2251-debris",
        "lat": 52.18884008930606,
        "lon": -14.640188034652317,
        "alt_km": 756.4114483396625,
        "timestamp": "2025-12-20T18:51:32.109213+00:00",
        "meta_object_name": "COSMOS 2251 DEB",
        "meta_object_id": "1993-036AKB",
        "meta_epoch": "2025-12-10T18:27:52.031808",
        "meta_mean_motion": 14.34742553,
        "meta_eccentricity": 0.00254013,
        "meta_inclination": 74.0339,
        "meta_ra_of_asc_node": 342.0559,
        "meta_arg_of_pericenter": 37.4572,
        "meta_mean_anomaly": 142.4072,
        "meta_ephemeris_type": 0,
        "meta_classification_type": "U",
        "meta_norad_cat_id": 35433,
        "meta_element_set_no": 999,
        "meta_rev_at_epoch": 86552,
        "meta_bstar": 0.00041847558,
        "meta_mean_motion_dot": 1.164e-05,
        "meta_mean_motion_ddot": 0,
        "tle_line1": "1 35433U 93036AKB 25344.76935222  .00001164  00000+0  41848-3 0  9992",
        "tle_line2": "2 35433  74.0339 342.0559 0025401  37.4572 142.4072 14.34742553865528"
      },
      "geometry": {
        "type": "Point",
        "coordinates": [
          -14.640188034652317,
          52.18884008930606
        ]
      }
    }
  ]
}